{"type": "FeatureCollection", "features": [ {"type": "Feature", "properties": {"norad_id": 31674, "name": "FENGYUN 1C DEB", "group": "fengyun-1c-debris", "lat": -8.139674979969804, "lon": -159.38245230146967, "alt_km": 726.6200087026973, "timestamp": "2025-12-11T15:53:39.826296+00:00", "meta": {"OBJECT_NAME": "FENGYUN 1C DEB", "OBJECT_ID": "1999-025CCG", "EPOCH": "2025-12-09T20:01:21.040320", "MEAN_MOTION": 14.51775826, "ECCENTRICITY": 0.00242552, "INCLINATION": 98.9267, "RA_OF_ASC_NODE": 19.9647, "ARG_OF_PERICENTER": 293.913, "MEAN_ANOMALY": 65.9523, "EPHEMERIS_TYPE": 0, "CLASSIFICATION_TYPE": "U", "NORAD_CAT_ID": 31674, "ELEMENT_SET_NO": 999, "REV_AT_EPOCH": 64572, "BSTAR": 0.004451265, "MEAN_MOTION_DOT": 0.0001796, "MEAN_MOTION_DDOT": 0}, "tle": {"line1": "1 31674U 99025CCG 25343.83427130  .00017960  00000+0  44513-2 0  9992", "line2": "2 31674  98.9267  19.9647 0024255 293.9130  65.9523 14.51775826645725"}}, "geometry": {"type": "Point", "coordinates": [-159.38245230146967, -8.139674979969804]}}, {"type": "Feature", "properties": {"norad_id": 31678, "name": "FENGYUN 1C DEB", "group": "fengyun-1c-debris", "lat": 34.59562805725407, "lon": -79.07988419924708, "alt_km": 782.8334863586997, "timestamp": "2025-12-11T15:53:39.826306+00:00", "meta": {"OBJECT_NAME": "FENGYUN 1C DEB", "OBJECT_ID": "1999-025CCL", "EPOCH": "2025-12-07T13:45:05.550624", "MEAN_MOTION": 14.53109934, "ECCENTRICITY": 0.02595985, "INCLINATION": 98.8002, "RA_OF_ASC_NODE": 90.4904, "ARG_OF_PERICENTER": 43.5795, "MEAN_ANOMALY": 318.5589, "EPHEMERIS_TYPE": 0, "CLASSIFICATION_TYPE": "U", "NORAD_CAT_ID": 31678, "ELEMENT_SET_NO": 999, "REV_AT_EPOCH": 96764, "BSTAR": 0.0013282035, "MEAN_MOTION_DOT": 8.539e-05, "MEAN_MOTION_DDOT": 0}, "tle": {"line1": "1 31678U 99025CCL 25341.57298091  .00008539  00000+0  13282-2 0  9998", "line2": "2 31678  98.8002  90.4904 0259598  43.5795 318.5589 14.53109934967641"}}, "geometry": {"type": "Point", "coordinates": [-79.07988419924708, 34.59562805725407]}}, {"type": "Feature", "properties": {"norad_id": 31680, "name": "FENGYUN 1C DEB", "group": "fengyun-1c-debris", "lat": 14.270733171439385, "lon": -84.62982186235729, "alt_km": 527.1795183255008, "timestamp": "2025-12-11T15:53:39.826315+00:00", "meta": {"OBJECT_NAME": "FENGYUN 1C DEB", "OBJECT_ID": "1999-025CCN", "EPOCH": "2025-12-01T12:24:56.280384", "MEAN_MOTION": 15.23129084, "ECCENTRICITY": 0.00767187, "INCLINATION": 99.8371, "RA_OF_ASC_NODE": 79.5688, "ARG_OF_PERICENTER": 326.4476, "MEAN_ANOMALY": 33.1906, "EPHEMERIS_TYPE": 0, "CLASSIFICATION_TYPE": "U", "NORAD_CAT_ID": 31680, "ELEMENT_SET_NO": 999, "REV_AT_EPOCH": 1, "BSTAR": 0.0012783451, "MEAN_MOTION_DOT": 0.00032771, "MEAN_MOTION_DDOT": 0}, "tle": {"line1": "1 31680U 99025CCN 25335.51731806  .00032771  00000+0  12783-2 0  9994", "line2": "2 31680  99.8371  79.5688 0076718 326.4476  33.1906 15.23129084    19"}}, "geometry": {"type": "Point", "coordinates": [-84.62982186235729, 14.270733171439385]}}, {"type": "Feature", "properties": {"norad_id": 31685, "name": "FENGYUN 1C DEB", "group": "fengyun-1c-debris", "lat": 62.59701385552942, "lon": -7.328052300425998, "alt_km": 865.4657266811537, "timestamp": "2025-12-11T15:53:39.826327+00:00", "meta": {"OBJECT_NAME": "FENGYUN 1C DEB", "OBJECT_ID": "1999-025CCT", "EPOCH": "2025-12-10T20:51:10.616832", "MEAN_MOTION": 14.09657081, "ECCENTRICITY": 0.0015814, "INCLINATION": 98.7312, "RA_OF_ASC_NODE": 9.146, "ARG_OF_PERICENTER": 231.2103, "MEAN_ANOMALY": 128.7656, "EPHEMERIS_TYPE": 0, "CLASSIFICATION_TYPE": "U", "NORAD_CAT_ID": 31685, "ELEMENT_SET_NO": 999, "REV_AT_EPOCH": 95063, "BSTAR": 0.00016828, "MEAN_MOTION_DOT": 2.53e-06, "MEAN_MOTION_DDOT": 0}, "tle": {"line1": "1 31685U 99025CCT 25344.86887288  .00000253  00000+0  16828-3 0  9998", "line2": "2 31685  98.7312   9.1460 0015814 231.2103 128.7656 14.09657081950635"}}, "geometry": {"type": "Point", "coordinates": [-7.328052300425998, 62.59701385552942]}}, {"type": "Feature", "properties": {"norad_id": 31686, "name": "FENGYUN 1C DEB", "group": "fengyun-1c-debris", "lat": -51.3727177086338, "lon": 67.57984821911045, "alt_km": 822.7969284986448, "timestamp": "2025-12-11T15:53:39.826338+00:00", "meta": {"OBJECT_NAME": "FENGYUN 1C DEB", "OBJECT_ID": "1999-025CCU", "EPOCH": "2025-12-10T10:46:20.455104", "MEAN_MOTION": 14.72037597, "ECCENTRICITY": 0.02837956, "INCLINATION": 98.1518, "RA_OF_ASC_NODE": 56.0281, "ARG_OF_PERICENTER": 96.7417, "MEAN_ANOMALY": 266.6169, "EPHEMERIS_TYPE": 0, "CLASSIFICATION_TYPE": "U", "NORAD_CAT_ID": 31686, "ELEMENT_SET_NO": 999, "REV_AT_EPOCH": 97785, "BSTAR": 0.0010577833, "MEAN_MOTION_DOT": 0.00012579, "MEAN_MOTION_DDOT": 0}, "tle": {"line1": "1 31686U 99025CCU 25344.44884786  .00012579  00000+0  10578-2 0  9992", "line2": "2 31686  98.1518  56.0281 0283795  96.7417 266.6169 14.72037597977855"}}, "geometry": {"type": "Point", "coordinates": [67.57984821911045, -51.3727177086338]}}, {"type": "Feature", "properties": {"norad_id": 31688, "name": "FENGYUN 1C DEB", "group": "fengyun-1c-debris", "lat": -38.54666007411571, "lon": -147.47070741165842, "alt_km": 877.5282835291518, "timestamp": "2025-12-11T15:53:39.826348+00:00", "meta": {"OBJECT_NAME": "FENGYUN 1C DEB", "OBJECT_ID": "1999-025CCW", "EPOCH": "2025-12-10T21:44:07.649376", "MEAN_MOTION": 14.02315718, "ECCENTRICITY": 0.0075411, "INCLINATION": 98.9654, "RA_OF_ASC_NODE": 39.0109, "ARG_OF_PERICENTER": 146.187, "MEAN_ANOMALY": 214.4137, "EPHEMERIS_TYPE": 0, "CLASSIFICATION_TYPE": "U", "NORAD_CAT_ID": 31688, "ELEMENT_SET_NO": 999, "REV_AT_EPOCH": 95252, "BSTAR": 1.0331e-05, "MEAN_MOTION_DOT": -2.7e-07, "MEAN_MOTION_DDOT": 0}, "tle": {"line1": "1 31688U 99025CCW 25344.90564409 -.00000027  00000+0  10331-4 0  9997", "line2": "2 31688  98.9654  39.0109 0075411 146.1870 214.4137 14.02315718952523"}}, "geometry": {"type": "Point", "coordinates": [-147.47070741165842, -38.54666007411571]}}, {"type": "Feature", "properties": {"norad_id": 31691, "name": "FENGYUN 1C DEB", "group": "fengyun-1c-debris", "lat": -46.19117835012911, "lon": 81.45927195246644, "alt_km": 797.0014952617003, "timestamp": "2025-12-11T15:53:39.826360+00:00", "meta": {"OBJECT_NAME": "FENGYUN 1C DEB", "OBJECT_ID": "1999-025CCZ", "EPOCH": "2025-12-09T11:54:52.287264", "MEAN_MOTION": 14.26085978, "ECCENTRICITY": 0.00609, "INCLINATION": 98.8812, "RA_OF_ASC_NODE": 69.8833, "ARG_OF_PERICENTER": 248.3823, "MEAN_ANOMALY": 111.0861, "EPHEMERIS_TYPE": 0, "CLASSIFICATION_TYPE": "U", "NORAD_CAT_ID": 31691, "ELEMENT_SET_NO": 999, "REV_AT_EPOCH": 64065, "BSTAR": 0.0034527786, "MEAN_MOTION_DOT": 8.379e-05, "MEAN_MOTION_DDOT": 0}, "tle": {"line1": "1 31691U 99025CCZ 25343.49643851  .00008379  00000+0  34528-2 0  9992", "line2": "2 31691  98.8812  69.8833 0060900 248.3823 111.0861 14.26085978640659"}}, "geometry": {"type": "Point", "coordinates": [81.45927195246644, -46.19117835012911]}}, {"type": "Feature", "properties": {"norad_id": 31692, "name": "FENGYUN 1C DEB", "group": "fengyun-1c-debris", "lat": -80.23114846423844, "lon": 92.24947769611724, "alt_km": 901.6515477623689, "timestamp": "2025-12-11T15:53:39.826370+00:00", "meta": {"OBJECT_NAME": "FENGYUN 1C DEB", "OBJECT_ID": "1999-025CDA", "EPOCH": "2025-12-11T06:10:48.476928", "MEAN_MOTION": 14.18323577, "ECCENTRICITY": 0.00878941, "INCLINATION": 99.1764, "RA_OF_ASC_NODE": 341.6931, "ARG_OF_PERICENTER": 85.951, "MEAN_ANOMALY": 275.1705, "EPHEMERIS_TYPE": 0, "CLASSIFICATION_TYPE": "U", "NORAD_CAT_ID": 31692, "ELEMENT_SET_NO": 999, "REV_AT_EPOCH": 58188, "BSTAR": 0.0045400463, "MEAN_MOTION_DOT": 9.685e-05, "MEAN_MOTION_DDOT": 0}, "tle": {"line1": "1 31692U 99025CDA 25345.25750552  .00009685  00000+0  45400-2 0  9998", "line2": "2 31692  99.1764 341.6931 0087894  85.9510 275.1705 14.18323577581888"}}, "geometry": {"type": "Point", "coordinates": [92.24947769611724, -80.23114846423844]}}, {"type": "Feature", "properties": {"norad_id": 31695, "name": "FENGYUN 1C DEB", "group": "fengyun-1c-debris", "lat": -2.758606947450916, "lon": -110.44551104220251, "alt_km": 571.5303229884612, "timestamp": "2025-12-11T15:53:39.826382+00:00", "meta": {"OBJECT_NAME": "FENGYUN 1C DEB", "OBJECT_ID": "1999-025CDD", "EPOCH": "2025-12-10T01:34:16.603680", "MEAN_MOTION": 14.73548742, "ECCENTRICITY": 0.01751817, "INCLINATION": 98.2646, "RA_OF_ASC_NODE": 68.3287, "ARG_OF_PERICENTER": 237.0971, "MEAN_ANOMALY": 121.3278, "EPHEMERIS_TYPE": 0, "CLASSIFICATION_TYPE": "U", "NORAD_CAT_ID": 31695, "ELEMENT_SET_NO": 999, "REV_AT_EPOCH": 65932, "BSTAR": 0.0024110089, "MEAN_MOTION_DOT": 0.00020039, "MEAN_MOTION_DDOT": 0}, "tle": {"line1": "1 31695U 99025CDD 25344.06546995  .00020039  00000+0  24110-2 0  9994", "line2": "2 31695  98.2646  68.3287 0175181 237.0971 121.3278 14.73548742659321"}}, "geometry": {"type": "Point", "coordinates": [-110.44551104220251, -2.758606947450916]}}, {"type": "Feature", "properties": {"norad_id": 31714, "name": "FENGYUN 1C DEB", "group": "fengyun-1c-debris", "lat": -35.36833288231339, "lon": 59.21278218872327, "alt_km": 611.4031822117349, "timestamp": "2025-12-11T15:53:39.826393+00:00", "meta": {"OBJECT_NAME": "FENGYUN 1C DEB", "OBJECT_ID": "1999-025CDM", "EPOCH": "2025-12-11T05:49:47.919072", "MEAN_MOTION": 14.87741873, "ECCENTRICITY": 0.00189891, "INCLINATION": 99.0301, "RA_OF_ASC_NODE": 245.2176, "ARG_OF_PERICENTER": 308.8402, "MEAN_ANOMALY": 182.4415, "EPHEMERIS_TYPE": 0, "CLASSIFICATION_TYPE": "U", "NORAD_CAT_ID": 31714, "ELEMENT_SET_NO": 999, "REV_AT_EPOCH": 96027, "BSTAR": 0.0099751352, "MEAN_MOTION_DOT": 0.00092395, "MEAN_MOTION_DDOT": 0}, "tle": {"line1": "1 31714U 99025CDM 25345.24291573  .00092395  00000+0  99751-2 0  9993", "line2": "2 31714  99.0301 245.2176 0018989 308.8402 182.4415 14.87741873960276"}}, "geometry": {"type": "Point", "coordinates": [59.21278218872327, -35.36833288231339]}}]}